QIANFAN-33              
1 61566U 24185Q   25294.95734008  .00000647  00000+0  45872-3 0  9997
2 61566  88.9753  84.5759 0008603 120.3564 239.8464 13.96482958 61932
QIANFAN-34              
1 61567U 24185R   25294.99227613  .00000776  00000+0  49784-3 0  9990
2 61567  88.9735  84.2043 0007423 122.2209 237.9692 14.02236310 62101
QIANFAN-35              
1 61568U 24185S   25294.98010025  .00001425  00000+0  57047-3 0  9990
2 61568  88.9760  82.9495 0008755  95.5798 264.6396 14.27834779 62793
QIANFAN-36              
1 61569U 24185T   25294.99841676  .00000193  00000+0  25995-3 0  9994
2 61569  88.9739  86.4303 0006042 176.2496 183.8704 13.55566445 60915
QIANFAN-37              
1 62238U 24232B   25294.92520525  .00000171  00000+0  24644-3 0  9997
2 62238  89.0027  46.5481 0001334 123.8468 236.2811 13.50973018 92179
QIANFAN-38              
1 62239U 24232C   25294.94982920  .00000161  00000+0  23030-3 0  9998
2 62239  89.0033  46.4580 0013735 351.5943   8.4976 13.50981447 92235
QIANFAN-39              
1 62240U 24232D   25294.96470440  .00000980  00000+0  41015-3 0  9993
2 62240  89.0029  43.2180 0014363 243.9010 116.0705 14.25302610 94016
QIANFAN-40              
1 62241U 24232E   25294.90865638  .00000158  00000+0  22599-3 0  9998
2 62241  89.0061  46.0323 0013009   0.5568 359.5595 13.50981014 92594
